NORAD_CAT_ID,OBJECT_NAME,OBJECT_TYPE,EPOCH,MEAN_MOTION,ECCENTRICITY,INCLINATION,RA_OF_ASC_NODE,ARG_OF_PERICENTER,MEAN_ANOMALY,BSTAR,MEAN_MOTION_DOT,MEAN_MOTION_DDOT,TLE_LINE0,TLE_LINE1,TLE_LINE2,SEMIMAJOR_AXIS,PERIOD,APOGEE,PERIGEE,DECAYED
53014.0,STARLINK-4183,PAYLOAD,2024-03-04 05:53:04,15.08842357,0.0001452,53.217,145.657,108.5713,251.5437,0.00012683,1.731e-05,0.0,0 STARLINK-4183,1 53014U 22076AE  24064.24518768  .00001731  00000-0  12683-3 0  9992,2 53014  53.2170 145.6570 0001452 108.5713 251.5437 15.08842357 92425,6917.873,95.437,540.743,538.734,0.0
53014.0,STARLINK-4183,PAYLOAD,2024-03-04 12:14:36,15.08859038,0.0001471,53.2168,144.4702,86.9966,273.1195,0.00034627,5.23e-05,0.0,0 STARLINK-4183,1 53014U 22076AE  24064.51014197  .00005230  00000-0  34627-3 0  9999,2 53014  53.2168 144.4702 0001471  86.9966 273.1195 15.08859038 92465,6917.822,95.436,540.705,538.67,0.0
53014.0,STARLINK-4183,PAYLOAD,2024-03-05 13:40:47,15.08819192,0.0001466,53.2162,139.7119,101.375,258.7407,-0.00069151,-0.0001127,0.0,0 STARLINK-4183,1 53014U 22076AE  24065.56999160 -.00011270  00000-0 -69151-3 0  9990,2 53014  53.2162 139.7119 0001466 101.3750 258.7407 15.08819192 92153,6917.944,95.439,540.823,538.795,0.0
53014.0,STARLINK-4183,PAYLOAD,2024-03-05 15:16:10,15.08815415,0.0001529,53.2159,139.4136,109.6681,250.4476,-0.00050953,-8.383e-05,0.0,0 STARLINK-4183,1 53014U 22076AE  24065.63623210 -.00008383  00000-0 -50953-3 0  9999,2 53014  53.2159 139.4136 0001529 109.6681 250.4476 15.08815415 92631,6917.956,95.439,540.878,538.763,0.0
53014.0,STARLINK-4183,PAYLOAD,2024-03-06 11:56:12,15.08844059,0.0001476,53.2158,135.5484,99.8186,260.2972,0.0013565,0.00021369,0.0,0 STARLINK-4183,1 53014U 22076AE  24066.49736393  .00021369  00000-0  13565-2 0  9995,2 53014  53.2158 135.5484 0001476  99.8186 260.2972 15.08844059 92764,6917.868,95.437,540.754,538.712,0.0
53014.0,STARLINK-4183,PAYLOAD,2024-03-06 13:31:35,15.0885007,0.0001463,53.2157,135.251,98.5203,261.5954,0.0015548,0.0002455,0.0,0 STARLINK-4183,1 53014U 22076AE  24066.56360337  .00024550  00000-0  15548-2 0  9992,2 53014  53.2157 135.2510 0001463  98.5203 261.5954 15.08850070 92306,6917.85,95.437,540.727,538.703,0.0
53014.0,STARLINK-4183,PAYLOAD,2024-03-07 11:46:59,15.08848958,0.0001421,53.2155,131.0879,92.8224,267.2931,0.0011915,0.0001873,0.0,0 STARLINK-4183,1 53014U 22076AE  24067.49096076  .00018730  00000-0  11915-2 0  9998,2 53014  53.2155 131.0879 0001421  92.8224 267.2931 15.08848958 92445,6917.853,95.437,540.701,538.735,0.0
53014.0,STARLINK-4183,PAYLOAD,2024-03-08 13:13:09,15.08843647,0.0001514,53.216,126.3278,88.0514,272.0652,0.00025397,3.757e-05,0.0,0 STARLINK-4183,1 53014U 22076AE  24068.55080076  .00003757  00000-0  25397-3 0  9992,2 53014  53.2160 126.3278 0001514  88.0514 272.0652 15.08843647 93077,6917.869,95.437,540.782,538.687,0.0
53014.0,STARLINK-4183,PAYLOAD,2024-03-09 09:53:10,15.08843064,0.0001546,53.2163,122.4629,81.2175,278.8992,0.00015877,2.24e-05,0.0,0 STARLINK-4183,1 53014U 22076AE  24069.41192147  .00002240  00000-0  15877-3 0  9999,2 53014  53.2163 122.4629 0001546  81.2175 278.8992 15.08843064 93209,6917.871,95.437,540.806,538.667,0.0
53014.0,STARLINK-4183,PAYLOAD,2024-03-09 21:00:51,15.0884877,0.0001549,53.2167,120.3808,79.7123,280.4043,0.00022482,3.293e-05,0.0,0 STARLINK-4183,1 53014U 22076AE  24069.87559799  .00003293  00000-0  22482-3 0  9998,2 53014  53.2167 120.3808 0001549  79.7123 280.4043 15.08848770 92807,6917.854,95.437,540.79,538.647,0.0
53014.0,STARLINK-4183,PAYLOAD,2024-03-10 09:43:57,15.08835704,0.0001533,53.2161,118.0016,84.0261,276.0906,1.4448e-05,-5.8e-07,0.0,0 STARLINK-4183,1 53014U 22076AE  24070.40552460 -.00000058  00000-0  14448-4 0  9998,2 53014  53.2161 118.0016 0001533  84.0261 276.0906 15.08835704 93354,6917.894,95.438,540.819,538.698,0.0
53014.0,STARLINK-4183,PAYLOAD,2024-03-11 09:34:44,15.08845052,0.0001484,53.2161,113.5415,78.5734,281.5425,0.00016351,2.316e-05,0.0,0 STARLINK-4183,1 53014U 22076AE  24071.39912102  .00002316  00000-0  16351-3 0  9992,2 53014  53.2161 113.5415 0001484  78.5734 281.5425 15.08845052 93506,6917.865,95.437,540.757,538.703,0.0
53014.0,STARLINK-4183,PAYLOAD,2024-03-12 09:25:31,15.08837554,0.0001554,53.2157,109.0806,82.2496,277.8672,0.00013597,1.876e-05,0.0,0 STARLINK-4183,1 53014U 22076AE  24072.39272500  .00001876  00000-0  13597-3 0  9993,2 53014  53.2157 109.0806 0001554  82.2496 277.8672 15.08837554 93656,6917.888,95.438,540.828,538.678,0.0
53014.0,STARLINK-4183,PAYLOAD,2024-03-13 12:27:04,15.08844506,0.0001521,53.2156,104.0248,80.5719,279.5445,7.6683e-05,9.33e-06,0.0,0 STARLINK-4183,1 53014U 22076AE  24073.51880009  .00000933  00000-0  76683-4 0  9996,2 53014  53.2156 104.0248 0001521  80.5719 279.5445 15.08844506 93824,6917.867,95.437,540.784,538.679,0.0
53014.0,STARLINK-4183,PAYLOAD,2024-03-14 05:56:19,15.08837646,0.0001508,53.2157,100.754,86.4219,273.6946,5.6655e-05,6.14e-06,0.0,0 STARLINK-4183,1 53014U 22076AE  24074.24744352  .00000614  00000-0  56655-4 0  9990,2 53014  53.2157 100.7540 0001508  86.4219 273.6946 15.08837646 93466,6917.888,95.438,540.796,538.709,0.0
53014.0,STARLINK-4183,PAYLOAD,2024-03-14 10:42:28,15.08841134,0.0001527,53.2169,99.8625,89.462,270.6548,0.00012871,1.761e-05,0.0,0 STARLINK-4183,1 53014U 22076AE  24074.44616389  .00001761  00000-0  12871-3 0  9995,2 53014  53.2169  99.8625 0001527  89.4620 270.6548 15.08841134 93968,6917.877,95.437,540.798,538.686,0.0
53014.0,STARLINK-4183,PAYLOAD,2024-03-15 08:57:52,15.08841311,0.0001536,53.2169,95.6991,94.6342,265.4825,5.9428e-05,6.58e-06,0.0,0 STARLINK-4183,1 53014U 22076AE  24075.37352441  .00000658  00000-0  59428-4 0  9998,2 53014  53.2169  95.6991 0001536  94.6342 265.4825 15.08841311 93638,6917.876,95.437,540.804,538.679,0.0
53014.0,STARLINK-4183,PAYLOAD,2024-03-16 00:51:43,15.08840256,0.000156,53.217,92.7246,96.2267,263.8903,8.0951e-05,1.001e-05,0.0,0 STARLINK-4183,1 53014U 22076AE  24076.03592484  .00001001  00000-0  80951-4 0  9993,2 53014  53.2170  92.7246 0001560  96.2267 263.8903 15.08840256 94202,6917.88,95.438,540.824,538.665,0.0
53014.0,STARLINK-4183,PAYLOAD,2024-03-16 08:48:39,15.08840466,0.0001507,53.2169,91.2379,93.89,266.2265,5.4273e-05,5.76e-06,0.0,0 STARLINK-4183,1 53014U 22076AE  24076.36712524  .00000576  00000-0  54273-4 0  9992,2 53014  53.2169  91.2379 0001507  93.8900 266.2265 15.08840466 93782,6917.879,95.438,540.786,538.701,0.0
53014.0,STARLINK-4183,PAYLOAD,2024-03-17 07:04:03,15.08842237,0.0001475,53.2168,87.0746,92.1027,268.0134,8.3582e-05,1.043e-05,0.0,0 STARLINK-4183,1 53014U 22076AE  24077.29448305  .00001043  00000-0  83582-4 0  9993,2 53014  53.2168  87.0746 0001475  92.1027 268.0134 15.08842237 94399,6917.874,95.437,540.759,538.718,0.0
53014.0,STARLINK-4183,PAYLOAD,2024-03-18 05:19:27,15.0883734,0.0001406,53.2165,82.9112,95.7277,264.3875,3.3908e-05,2.52e-06,0.0,0 STARLINK-4183,1 53014U 22076AE  24078.22184713  .00000252  00000-0  33908-4 0  9995,2 53014  53.2165  82.9112 0001406  95.7277 264.3875 15.08837340 94533,6917.889,95.438,540.726,538.781,0.0
53014.0,STARLINK-4183,PAYLOAD,2024-03-18 06:54:50,15.08837073,0.0001407,53.2167,82.614,95.1724,264.9428,2.9983e-05,1.89e-06,0.0,0 STARLINK-4183,1 53014U 22076AE  24078.28808746  .00000189  00000-0  29983-4 0  9997,2 53014  53.2167  82.6140 0001407  95.1724 264.9428 15.08837073 94077,6917.889,95.438,540.728,538.781,0.0
53014.0,STARLINK-4183,PAYLOAD,2024-03-19 09:56:23,15.08841131,0.0001505,53.2171,77.5581,107.0447,253.0711,5.4979e-05,5.87e-06,0.0,0 STARLINK-4183,1 53014U 22076AE  24079.41416582  .00000587  00000-0  54979-4 0  9991,2 53014  53.2171  77.5581 0001505 107.0447 253.0711 15.08841131 94713,6917.877,95.437,540.783,538.701,0.0
53014.0,STARLINK-4183,PAYLOAD,2024-03-20 06:36:25,15.08833307,0.0001428,53.2172,73.6917,101.2625,258.8527,3.6943e-05,3e-06,0.0,0 STARLINK-4183,1 53014U 22076AE  24080.27529435  .00000300  00000-0  36943-4 0  9993,2 53014  53.2172  73.6917 0001428 101.2625 258.8527 15.08833307 94840,6917.901,95.438,540.754,538.778,0.0
53014.0,STARLINK-4183,PAYLOAD,2024-03-21 09:37:58,15.08842775,0.0001335,53.2172,68.6374,96.5574,263.557,8.6368e-05,1.087e-05,0.0,0 STARLINK-4183,1 53014U 22076AE  24081.40137041  .00001087  00000-0  86368-4 0  9996,2 53014  53.2172  68.6374 0001335  96.5574 263.5570 15.08842775 95017,6917.872,95.437,540.66,538.813,0.0
53014.0,STARLINK-4183,PAYLOAD,2024-03-22 07:53:22,15.08845019,0.0001384,53.2173,64.4747,101.3333,258.7814,0.00015872,2.239e-05,0.0,0 STARLINK-4183,1 53014U 22076AE  24082.32872872  .00002239  00000-0  15872-3 0  9997,2 53014  53.2173  64.4747 0001384 101.3333 258.7814 15.08845019 94681,6917.865,95.437,540.687,538.773,0.0
53014.0,STARLINK-4183,PAYLOAD,2024-03-23 04:33:23,15.08839178,0.0001412,53.2172,60.6083,121.8531,238.2599,2.261e-05,7.2e-07,0.0,0 STARLINK-4183,1 53014U 22076AE  24083.18985717  .00000072  00000-0  22610-4 0  9997,2 53014  53.2172  60.6083 0001412 121.8531 238.2599 15.08839178 95289,6917.883,95.438,540.725,538.771,0.0
53014.0,STARLINK-4183,PAYLOAD,2024-03-23 07:44:10,15.08837198,0.0001471,53.2178,60.0145,79.5476,280.5682,2.0336e-05,3.6e-07,0.0,0 STARLINK-4183,1 53014U 22076AE  24083.32234181  .00000036  00000-0  20336-4 0  9998,2 53014  53.2178  60.0145 0001471  79.5476 280.5682 15.08837198 94833,6917.889,95.438,540.772,538.736,0.0
53014.0,STARLINK-4183,PAYLOAD,2024-03-24 07:34:56,15.08851235,0.000202,53.2202,55.5424,90.6576,269.4647,0.00023267,3.418e-05,0.0,0 STARLINK-4183,1 53014U 22076AE  24084.31593147  .00003418  00000-0  23267-3 0  9990,2 53014  53.2202  55.5424 0002020  90.6576 269.4647 15.08851235 95450,6917.846,95.437,541.108,538.314,0.0
53014.0,STARLINK-4183,PAYLOAD,2024-03-25 04:14:57,15.08852592,0.0001457,53.2181,51.6869,89.6591,270.4568,0.00025881,3.835e-05,0.0,0 STARLINK-4183,1 53014U 22076AE  24085.17704982  .00003835  00000-0  25881-3 0  9993,2 53014  53.2181  51.6869 0001457  89.6591 270.4568 15.08852592 95589,6917.842,95.437,540.715,538.699,0.0
